{"epoch":1784762836,"count":18316,"objects":[{"id":"40044","name":"LEMUR 1","type":"PAYLOAD","l1":"1 40044U 14033AL  26202.65125124  .00001145  00000-0  13692-3 0  9996","l2":"2 40044  97.7917 351.7008 0047252 326.4372  33.3852 14.85349700650584"},{"id":"42837","name":"LEMUR 2 GREENBERG","type":"PAYLOAD","l1":"1 42837U 17042N   26203.49189408  .00017895  00000-0  57475-3 0  9995","l2":"2 42837  97.3841  23.9842 0007604 229.2451 130.8131 15.32320338493797"},{"id":"42838","name":"LEMUR 2 ANDIS","type":"PAYLOAD","l1":"1 42838U 17042P   26203.56698226  .00023306  00000-0  66222-3 0  9991","l2":"2 42838  97.3692  24.3717 0007579 228.2076 131.8522 15.36149661493888"},{"id":"42839","name":"LEMUR 2 MONSON","type":"PAYLOAD","l1":"1 42839U 17042Q   26203.51281385  .00017580  00000-0  62769-3 0  9990","l2":"2 42839  97.4103  23.9214 0005824 215.4164 144.6689 15.28902662493561"},{"id":"42840","name":"LEMUR 2 FURIAUS","type":"PAYLOAD","l1":"1 42840U 17042R   26202.98689977  .00018172  00000-0  60292-3 0  9998","l2":"2 42840  97.3788  21.3574 0005641 300.5579  59.5105 15.31284337493535"},{"id":"42841","name":"LEMUR 2 PETERG","type":"PAYLOAD","l1":"1 42841U 17042S   26203.31147831  .00022664  00000-0  66383-3 0  9993","l2":"2 42841  97.4004  28.4368 0003874 191.0244 169.0915 15.35223729493825"},{"id":"42842","name":"LEMUR 2 DEMBITZ","type":"PAYLOAD","l1":"1 42842U 17042T   26203.00675832  .00017604  00000-0  58480-3 0  9994","l2":"2 42842  97.3839  24.4256 0005275 243.5314 116.5387 15.31253266493679"},{"id":"42845","name":"LEMUR 2 ZACHARY","type":"PAYLOAD","l1":"1 42845U 17042W   26203.26910975  .00056885  00000-0  90130-3 0  9997","l2":"2 42845  97.3582  35.7273 0003043 215.6332 144.4718 15.53224971494643"},{"id":"48269","name":"LEMUR 2 AMANDA-SVANTE","type":"PAYLOAD","l1":"1 48269U 21034B   26203.48607063  .00036074  00000-0  10180-2 0  9998","l2":"2 48269  97.5743 282.7531 0004767 127.0057 233.1624 15.36294018286477"},{"id":"48273","name":"LEMUR 2 SPECIAL K","type":"PAYLOAD","l1":"1 48273U 21034F   26203.50780290  .00310609  00000-0  17881-2 0  9994","l2":"2 48273  97.5623 293.2632 0006148 211.9192 148.1703 15.77833093287231"},{"id":"56970","name":"LEMUR 2 EMBRIONOVIS","type":"PAYLOAD","l1":"1 56970U 23084AQ  26203.40045334  .00015030  00000-0  39880-3 0  9990","l2":"2 56970  97.6329 348.9822 0008890 180.3852 179.7387 15.38367572173092"},{"id":"57391","name":"LEMUR 2 DEVERILL-M-T","type":"PAYLOAD","l1":"1 57391U 23100F   26203.56725221  .00028403  00000-0  68142-3 0  9995","l2":"2 57391  99.4449 252.5916 0004861 266.5325  93.5359 15.41359875166694"},{"id":"58259","name":"LEMUR 2 BASS","type":"PAYLOAD","l1":"1 58259U 23174D   26203.21483171  .00018409  00000-0  40288-3 0  9993","l2":"2 58259  97.3836 288.4427 0007139  57.0694 303.1240 15.44161059150761"},{"id":"58336","name":"LEMUR 2 JK0903EM1407","type":"PAYLOAD","l1":"1 58336U 23174CJ  26203.20580296  .00028980  00000-0  45969-3 0  9990","l2":"2 58336  97.3917 294.7062 0002953   3.3022 356.8251 15.53336656151169"},{"id":"58340","name":"LEMUR 2 MJR092620","type":"PAYLOAD","l1":"1 58340U 23174CN  26203.44540403  .00020574  00000-0  42215-3 0  9999","l2":"2 58340  97.3965 294.1539 0004551   2.8662 357.2613 15.46055779151095"},{"id":"58899","name":"LEMUR 2 NIMBUS2000","type":"PAYLOAD","l1":"1 58899U 24022A   26203.54022719  .00024000  00000-0  57591-3 0  9998","l2":"2 58899  97.4082  54.0148 0007933   2.8036 357.3254 15.41341854137718"},{"id":"58900","name":"LEMUR 2 VALHALLA","type":"PAYLOAD","l1":"1 58900U 24022B   26203.54821048  .00016915  00000-0  41621-3 0  9996","l2":"2 58900  97.4084  53.9852 0008432 357.9384   2.1826 15.40649804137713"},{"id":"58903","name":"LEMUR 2 CAEL","type":"PAYLOAD","l1":"1 58903U 24022E   26203.52726741  .00018900  00000-0  44414-3 0  9990","l2":"2 58903  97.4063  54.9639 0006324 341.5163  18.5853 15.42033682137780"},{"id":"59146","name":"LEMUR 2 JOHNNYTRUONG","type":"PAYLOAD","l1":"1 59146U 24043BA  26203.32540923  .00045879  00000-0  50535-3 0  9993","l2":"2 59146  97.5398 357.2807 0003714  69.5103 290.6554 15.62998099133522"},{"id":"60471","name":"LEMUR 2 TOMATOKECHUP","type":"PAYLOAD","l1":"1 60471U 24149D   26203.47303535  .00011500  00000-0  32304-3 0  9993","l2":"2 60471  97.3786 285.6244 0003443 109.2295 250.9322 15.36689210107588"},{"id":"60533","name":"LEMUR 2 STELLA","type":"PAYLOAD","l1":"1 60533U 24149BT  26203.48378361  .00011846  00000-0  68404-3 0  9995","l2":"2 60533  97.6725 286.1088 0001510 121.0521 239.0857 15.12478360105835"},{"id":"60536","name":"LEMUR 2 MARHISYAM","type":"PAYLOAD","l1":"1 60536U 24149BW  26203.21283061  .00010114  00000-0  59472-3 0  9993","l2":"2 60536  97.6869 286.3201 0002128  58.8291 301.3148 15.11867364105777"},{"id":"60576","name":"LEMUR 2 AHMED-ASRAR","type":"PAYLOAD","l1":"1 60576U 24149DN  26203.47669536  .00012174  00000-0  68476-3 0  9992","l2":"2 60576  97.6993 288.8178 0001846 178.9273 181.1962 15.13417372105904"},{"id":"60577","name":"LEMUR 2 LLOYD","type":"PAYLOAD","l1":"1 60577U 24149DP  26203.50527295  .00011367  00000-0  70588-3 0  9992","l2":"2 60577  97.6735 284.6664 0004142  52.1551 308.0052 15.09844872105721"},{"id":"60578","name":"LEMUR 2 SQUIRRELCOMM","type":"PAYLOAD","l1":"1 60578U 24149DQ  26203.17324855  .00006199  00000-0  41252-3 0  9996","l2":"2 60578  97.6700 283.9805 0003973 293.1589  66.9220 15.07496745105673"},{"id":"60579","name":"LEMUR 2 SIERRINI","type":"PAYLOAD","l1":"1 60579U 24149DR  26203.50772198  .00012874  00000-0  76058-3 0  9990","l2":"2 60579  97.6832 286.2710 0006064  71.1201 289.0686 15.11619311105798"},{"id":"62694","name":"LEMUR 2 WILSON","type":"PAYLOAD","l1":"1 62694U 25009CP  26203.16136626  .00002012  00000-0  18780-3 0  9999","l2":"2 62694  97.7015 281.0127 0001562 282.8389  77.2657 14.95296152 82584"},{"id":"62696","name":"LEMUR 2 STAR-FOX","type":"PAYLOAD","l1":"1 62696U 25009CR  26203.18444545  .00007915  00000-0  59390-3 0  9994","l2":"2 62696  97.6901 284.5412 0001459  13.2189 346.9074 15.02907513 82817"},{"id":"62699","name":"LEMUR 2 ARIANNA","type":"PAYLOAD","l1":"1 62699U 25009CU  26203.18289883  .00008019  00000-0  60161-3 0  9993","l2":"2 62699  97.6845 284.2864 0001827  23.9997 336.1313 15.02911553 82815"},{"id":"62706","name":"LEMUR 2 ALISIA","type":"PAYLOAD","l1":"1 62706U 25009DB  26203.48654112  .00008091  00000-0  60147-3 0  9990","l2":"2 62706  97.6958 285.4271 0005024 110.1294 250.0473 15.03248845105462"}]}