OBJECT_NAME,OBJECT_ID,EPOCH,MEAN_MOTION,ECCENTRICITY,INCLINATION,RA_OF_ASC_NODE,ARG_OF_PERICENTER,MEAN_ANOMALY,EPHEMERIS_TYPE,CLASSIFICATION_TYPE,NORAD_CAT_ID,ELEMENT_SET_NO,REV_AT_EPOCH,BSTAR,MEAN_MOTION_DOT,MEAN_MOTION_DDOT
LEMUR-1,2014-033AL,2026-07-21T15:37:48.107136,14.85349700,.00472517,97.7917,351.7008,326.4372,33.3852,0,U,40044,999,65058,.1369179E-3,.1145E-4,0
LEMUR-2-GREENBERG,2017-042N,2026-07-22T11:48:19.648512,15.32320338,.00076036,97.3841,23.9842,229.2451,130.8131,0,U,42837,999,49379,.57475196E-3,.17895E-3,0
LEMUR-2-ANDIS,2017-042P,2026-07-22T13:36:27.267264,15.36149661,.0007579,97.3692,24.3717,228.2076,131.8522,0,U,42838,999,49388,.66221889E-3,.23306E-3,0
LEMUR-2-MONSON,2017-042Q,2026-07-22T12:18:27.116640,15.28902662,.00058242,97.4103,23.9214,215.4164,144.6689,0,U,42839,999,49356,.62768983E-3,.1758E-3,0
LEMUR-2-FURIAUS,2017-042R,2026-07-21T23:41:08.140128,15.31284337,.00056409,97.3788,21.3574,300.5579,59.5105,0,U,42840,999,49353,.60292314E-3,.18172E-3,0
LEMUR-2-PETERG,2017-042S,2026-07-22T07:28:31.725984,15.35223729,.0003874,97.4004,28.4368,191.0244,169.0915,0,U,42841,999,49382,.66383213E-3,.22664E-3,0
LEMUR-2-DEMBITZ,2017-042T,2026-07-22T00:09:43.918848,15.31253266,.00052746,97.3839,24.4256,243.5314,116.5387,0,U,42842,999,49367,.58479899E-3,.17604E-3,0
LEMUR-2-ZACHARY,2017-042W,2026-07-22T06:27:31.082400,15.53224971,.00030435,97.3582,35.7273,215.6332,144.4718,0,U,42845,999,49464,.90129545E-3,.56885E-3,0
LEMUR-2-AMANDA-SVANTE,2021-034B,2026-07-22T11:39:56.502432,15.36294018,.00047672,97.5743,282.7531,127.0057,233.1624,0,U,48269,999,28647,.10179791E-2,.36074E-3,0
LEMUR-2-SPECIAL-K,2021-034F,2026-07-22T12:11:14.170560,15.77833093,.0006148,97.5623,293.2632,211.9192,148.1703,0,U,48273,999,28723,.17880834E-2,.310609E-2,0
LEMUR-2-EMBRIONOVIS,2023-084AQ,2026-07-22T09:36:39.168576,15.38367572,.00088903,97.6329,348.9822,180.3852,179.7387,0,U,56970,999,17309,.39879839E-3,.1503E-3,0
LEMUR-2-DEVERILL-M-T,2023-100F,2026-07-22T13:36:50.590944,15.41359875,.00048612,99.4449,252.5916,266.5325,93.5359,0,U,57391,999,16669,.68141641E-3,.28403E-3,0
LEMUR-2-BASS,2023-174D,2026-07-22T05:09:21.459744,15.44161059,.0007139,97.3836,288.4427,57.0694,303.1240,0,U,58259,999,15076,.40287576E-3,.18409E-3,0
LEMUR-2-JK0903EM1407,2023-174CJ,2026-07-22T04:56:21.375744,15.53336656,.00029535,97.3917,294.7062,3.3022,356.8251,0,U,58336,999,15116,.45968992E-3,.2898E-3,0
LEMUR-2-MJR092620,2023-174CN,2026-07-22T10:41:22.908192,15.46055779,.00045506,97.3965,294.1539,2.8662,357.2613,0,U,58340,999,15109,.42215119E-3,.20574E-3,0
LEMUR-2-NIMBUS2000,2024-022A,2026-07-22T12:57:55.629216,15.41341854,.00079327,97.4082,54.0148,2.8036,357.3254,0,U,58899,999,13771,.57591417E-3,.24E-3,0
LEMUR-2-VALHALLA,2024-022B,2026-07-22T13:09:25.385472,15.40649804,.00084318,97.4084,53.9852,357.9384,2.1826,0,U,58900,999,13771,.41620859E-3,.16915E-3,0
LEMUR-2-CAEL,2024-022E,2026-07-22T12:39:15.904224,15.42033682,.00063238,97.4063,54.9639,341.5163,18.5853,0,U,58903,999,13778,.44413824E-3,.189E-3,0
LEMUR-2-JOHNNYTRUONG,2024-043BA,2026-07-22T07:48:35.357472,15.62998099,.0003714,97.5398,357.2807,69.5103,290.6554,0,U,59146,999,13352,.50534786E-3,.45879E-3,0
LEMUR-2-TOMATOKECHUP,2024-149D,2026-07-22T11:21:10.254240,15.36689210,.00034425,97.3786,285.6244,109.2295,250.9322,0,U,60471,999,10758,.32304117E-3,.115E-3,0
LEMUR-2-STELLA,2024-149BT,2026-07-22T11:36:38.903904,15.12478360,.00015098,97.6725,286.1088,121.0521,239.0857,0,U,60533,999,10583,.68404124E-3,.11846E-3,0
LEMUR-2-MARHISYAM,2024-149BW,2026-07-22T05:06:28.564704,15.11867364,.00021285,97.6869,286.3201,58.8291,301.3148,0,U,60536,999,10577,.59472169E-3,.10114E-3,0
LEMUR-2-AHMED-ASRAR,2024-149DN,2026-07-22T11:26:26.479104,15.13417372,.00018456,97.6993,288.8178,178.9273,181.1962,0,U,60576,999,10590,.68476123E-3,.12174E-3,0
LEMUR-2-LLOYD,2024-149DP,2026-07-22T12:07:35.582880,15.09844872,.00041419,97.6735,284.6664,52.1551,308.0052,0,U,60577,999,10572,.70587609E-3,.11367E-3,0
LEMUR-2-SQUIRRELCOMM,2024-149DQ,2026-07-22T04:09:28.674720,15.07496745,.00039732,97.6700,283.9805,293.1589,66.9220,0,U,60578,999,10567,.41251545E-3,.6199E-4,0
LEMUR-2-SIERRINI,2024-149DR,2026-07-22T12:11:07.179072,15.11619311,.00060636,97.6832,286.2710,71.1201,289.0686,0,U,60579,999,10579,.76058363E-3,.12874E-3,0
LEMUR-2-WILSON,2025-009CP,2026-07-22T03:52:22.044864,14.95296152,.0001562,97.7015,281.0127,282.8389,77.2657,0,U,62694,999,8258,.18779581E-3,.2012E-4,0
LEMUR-2-STAR-FOX,2025-009CR,2026-07-22T04:25:36.086880,15.02907513,.0001459,97.6901,284.5412,13.2189,346.9074,0,U,62696,999,8281,.59389957E-3,.7915E-4,0
LEMUR-2-ARIANNA,2025-009CU,2026-07-22T04:23:22.458912,15.02911553,.00018268,97.6845,284.2864,23.9997,336.1313,0,U,62699,999,8281,.60161092E-3,.8019E-4,0
LEMUR-2-ALISIA,2025-009DB,2026-07-22T11:40:37.152768,15.03248845,.00050235,97.6958,285.4271,110.1294,250.0473,0,U,62706,999,10546,.60146732E-3,.8091E-4,0
